0 JCSAT 1
1 19874U 89020A   13279.59128709 -.00000190  00000-0  10000-3 0  2517
2 19874 013.2583 036.4512 0004615 072.4988 287.5577 00.99540191 82704
0 JCSAT 1
1 19874U 89020A   13281.60041783 -.00000233  00000-0  10000-3 0  2527
2 19874 013.2613 036.4274 0004620 072.1295 287.9221 00.99540316 82728
0 JCSAT 1
1 19874U 89020A   13283.60956671 -.00000272  00000-0  10000-3 0  2534
2 19874 013.2642 036.4038 0004617 072.2516 287.8004 00.99540248 82745
0 JCSAT 1
1 19874U 89020A   13283.60958527  .00000000  00000-0  10000-3 0  2545
2 19874 013.2651 036.4042 0004647 070.7615 289.2937 00.99536178 82744
0 JCSAT 1
1 19874U 89020A   13286.62328638 -.00000318  00000-0  10000-3 0  2547
2 19874 013.2688 036.3684 0004589 072.1980 287.8515 00.99539829 82776
0 JCSAT 1
1 19874U 89020A   13288.63241360 -.00000337  00000-0  10000-3 0  2558
2 19874 013.2717 036.3448 0004592 072.4549 287.5805 00.99539297 82795
0 JCSAT 1
1 19874U 89020A   13290.64155090 -.00000347  00000-0  10000-3 0  2568
2 19874 013.2747 036.3212 0004614 072.6371 287.3851 00.99538626 82814
0 JCSAT 1
1 19874U 89020A   13290.64156502  .00000000  00000-0  10000-3 0  2573
2 19874 013.2764 036.3218 0005709 071.3967 288.6410 00.99534824 82813
0 JCSAT 1
1 19874U 89020A   13292.65072471 -.00000347  00000-0  10000-3 0  2573
2 19874 013.2779 036.2975 0004495 073.7749 286.2394 00.99537817 82835
